start=new Date('2021-10-23T00:00:00.000Z').valueOf();
sats=[{"RA_OF_ASC_NODE":"244.2824","MEAN_MOTION":"15.73839588","FILE":"3179071","BSTAR":"0.00108100000000","OBJECT_ID":"2020-088U","EPHEMERIS_TYPE":"0","OBJECT_NAME":"STARLINK-1853","APOAPSIS":"352.984","MEAN_MOTION_DOT":"0.00158521","EPOCH":"2021-10-22T14:07:36.318720","SITE":"AFETR","CENTER_NAME":"EARTH","PERIAPSIS":"342.891","CLASSIFICATION_TYPE":"U","DECAY_DATE":null,"SEMIMAJOR_AXIS":"6726.072","MEAN_MOTION_DDOT":"0.0000000000000","INCLINATION":"53.0510","PERIOD":"91.496","LAUNCH_DATE":"2020-11-25","OBJECT_TYPE":"PAYLOAD","REV_AT_EPOCH":"5132","TLE_LINE2":"2 47140  53.0510 244.2824 0007503 272.0718  87.9441 15.73839588 51321","TLE_LINE1":"1 47140U 20088U   21295.58861480  .00158521  00000-0  10810-2 0  9997","ARG_OF_PERICENTER":"272.0718","ECCENTRICITY":"0.00075030","COUNTRY_CODE":"US","NORAD_CAT_ID":"47140","GP_ID":"187933181","RCS_SIZE":"LARGE","MEAN_ANOMALY":"87.9441","REF_FRAME":"TEME","MEAN_ELEMENT_THEORY":"SGP4","TIME_SYSTEM":"UTC","ELEMENT_SET_NO":"999"},{"MEAN_ANOMALY":"288.4984","REF_FRAME":"TEME","COUNTRY_CODE":"US","GP_ID":"187901584","RCS_SIZE":"LARGE","NORAD_CAT_ID":"47141","ECCENTRICITY":"0.00014440","ELEMENT_SET_NO":"999","TIME_SYSTEM":"UTC","MEAN_ELEMENT_THEORY":"SGP4","REV_AT_EPOCH":"5092","LAUNCH_DATE":"2020-11-25","OBJECT_TYPE":"PAYLOAD","INCLINATION":"53.0544","PERIOD":"95.592","ARG_OF_PERICENTER":"71.6161","TLE_LINE1":"1 47141U 20088V   21295.34225810  .00001202  00000-0  99602-4 0  9994","TLE_LINE2":"2 47141  53.0544 271.3027 0001444  71.6161 288.4984 15.06394626 50928","PERIAPSIS":"546.230","CLASSIFICATION_TYPE":"U","DECAY_DATE":null,"CENTER_NAME":"EARTH","SITE":"AFETR","MEAN_MOTION_DDOT":"0.0000000000000","SEMIMAJOR_AXIS":"6925.365","EPHEMERIS_TYPE":"0","MEAN_MOTION":"15.06394626","FILE":"3178676","BSTAR":"0.00009960200000","OBJECT_ID":"2020-088V","RA_OF_ASC_NODE":"271.3027","MEAN_MOTION_DOT":"0.00001202","EPOCH":"2021-10-22T08:12:51.099840","OBJECT_NAME":"STARLINK-1854","APOAPSIS":"548.230"},{"EPOCH":"2021-10-22T15:44:01.325760","MEAN_MOTION_DOT":"-0.00000428","OBJECT_NAME":"STARLINK-1856","APOAPSIS":"548.357","RA_OF_ASC_NODE":"269.9499","EPHEMERIS_TYPE":"0","FILE":"3179071","BSTAR":"-0.00000980260000","MEAN_MOTION":"15.06392195","OBJECT_ID":"2020-088X","MEAN_MOTION_DDOT":"0.0000000000000","SEMIMAJOR_AXIS":"6925.372","CENTER_NAME":"EARTH","SITE":"AFETR","PERIAPSIS":"546.118","CLASSIFICATION_TYPE":"U","DECAY_DATE":null,"TLE_LINE1":"1 47143U 20088X   21295.65557090 -.00000428  00000-0 -98026-5 0  9999","TLE_LINE2":"2 47143  53.0547 269.9499 0001617  73.9649 286.1518 15.06392195 50968","ARG_OF_PERICENTER":"73.9649","OBJECT_TYPE":"PAYLOAD","LAUNCH_DATE":"2020-11-25","INCLINATION":"53.0547","PERIOD":"95.593","REV_AT_EPOCH":"5096","MEAN_ELEMENT_THEORY":"SGP4","TIME_SYSTEM":"UTC","ELEMENT_SET_NO":"999","ECCENTRICITY":"0.00016170","MEAN_ANOMALY":"286.1518","REF_FRAME":"TEME","COUNTRY_CODE":"US","GP_ID":"187934683","RCS_SIZE":"LARGE","NORAD_CAT_ID":"47143"},{"MEAN_MOTION_DDOT":"0.0000000000000","SEMIMAJOR_AXIS":"6925.317","CENTER_NAME":"EARTH","SITE":"AFETR","PERIAPSIS":"545.926","DECAY_DATE":null,"CLASSIFICATION_TYPE":"U","EPOCH":"2021-10-22T15:24:06.197760","MEAN_MOTION_DOT":"0.00004303","OBJECT_NAME":"STARLINK-1857","APOAPSIS":"548.437","RA_OF_ASC_NODE":"260.0195","EPHEMERIS_TYPE":"0","FILE":"3179071","MEAN_MOTION":"15.06410409","BSTAR":"0.00030749000000","OBJECT_ID":"2020-088Y","TIME_SYSTEM":"UTC","MEAN_ELEMENT_THEORY":"SGP4","ELEMENT_SET_NO":"999","ECCENTRICITY":"0.00018130","MEAN_ANOMALY":"287.9457","REF_FRAME":"TEME","COUNTRY_CODE":"US","RCS_SIZE":"LARGE","GP_ID":"187933431","NORAD_CAT_ID":"47144","TLE_LINE1":"1 47144U 20088Y   21295.64173840  .00004303  00000-0  30749-3 0  9996","TLE_LINE2":"2 47144  53.0545 260.0195 0001813  72.1729 287.9457 15.06410409 51107","ARG_OF_PERICENTER":"72.1729","LAUNCH_DATE":"2020-11-25","OBJECT_TYPE":"PAYLOAD","INCLINATION":"53.0545","PERIOD":"95.591","REV_AT_EPOCH":"5110"},{"TIME_SYSTEM":"UTC","MEAN_ELEMENT_THEORY":"SGP4","ELEMENT_SET_NO":"999","ECCENTRICITY":"0.00053090","GP_ID":"187933681","RCS_SIZE":"LARGE","NORAD_CAT_ID":"47145","COUNTRY_CODE":"US","REF_FRAME":"TEME","MEAN_ANOMALY":"250.6126","TLE_LINE2":"2 47145  53.0534 260.0428 0005309 109.5436 250.6126 15.06402554 51101","TLE_LINE1":"1 47145U 20088Z   21295.63436529  .00001682  00000-0  13188-3 0  9997","ARG_OF_PERICENTER":"109.5436","PERIOD":"95.592","INCLINATION":"53.0534","LAUNCH_DATE":"2020-11-25","OBJECT_TYPE":"PAYLOAD","REV_AT_EPOCH":"5110","SEMIMAJOR_AXIS":"6925.341","MEAN_MOTION_DDOT":"0.0000000000000","CENTER_NAME":"EARTH","SITE":"AFETR","CLASSIFICATION_TYPE":"U","DECAY_DATE":null,"PERIAPSIS":"543.529","OBJECT_NAME":"STARLINK-1858","APOAPSIS":"550.882","MEAN_MOTION_DOT":"0.00001682","EPOCH":"2021-10-22T15:13:29.161056","RA_OF_ASC_NODE":"260.0428","OBJECT_ID":"2020-088Z","FILE":"3179071","BSTAR":"0.00013188000000","MEAN_MOTION":"15.06402554","EPHEMERIS_TYPE":"0"},{"TLE_LINE2":"2 47146  53.0557 291.7122 0001480  81.7404 278.3753 15.06393978 50629","TLE_LINE1":"1 47146U 20088AA  21295.26575079  .00001182  00000-0  98223-4 0  9990","ARG_OF_PERICENTER":"81.7404","INCLINATION":"53.0557","PERIOD":"95.593","LAUNCH_DATE":"2020-11-25","OBJECT_TYPE":"PAYLOAD","REV_AT_EPOCH":"5062","TIME_SYSTEM":"UTC","MEAN_ELEMENT_THEORY":"SGP4","ELEMENT_SET_NO":"999","ECCENTRICITY":"0.00014800","COUNTRY_CODE":"US","GP_ID":"187902084","RCS_SIZE":"LARGE","NORAD_CAT_ID":"47146","MEAN_ANOMALY":"278.3753","REF_FRAME":"TEME","APOAPSIS":"548.257","OBJECT_NAME":"STARLINK-1859","MEAN_MOTION_DOT":"0.00001182","EPOCH":"2021-10-22T06:22:40.868256","RA_OF_ASC_NODE":"291.7122","BSTAR":"0.00009822300000","FILE":"3178676","MEAN_MOTION":"15.06393978","OBJECT_ID":"2020-088AA","EPHEMERIS_TYPE":"0","SEMIMAJOR_AXIS":"6925.367","MEAN_MOTION_DDOT":"0.0000000000000","SITE":"AFETR","CENTER_NAME":"EARTH","PERIAPSIS":"546.207","CLASSIFICATION_TYPE":"U","DECAY_DATE":null},{"APOAPSIS":"548.372","OBJECT_NAME":"STARLINK-1860","EPOCH":"2021-10-22T15:58:37.251552","MEAN_MOTION_DOT":"0.00001529","RA_OF_ASC_NODE":"279.9276","BSTAR":"0.00012158000000","FILE":"3179071","MEAN_MOTION":"15.06384787","OBJECT_ID":"2020-088AB","EPHEMERIS_TYPE":"0","SEMIMAJOR_AXIS":"6925.395","MEAN_MOTION_DDOT":"0.0000000000000","SITE":"AFETR","CENTER_NAME":"EARTH","PERIAPSIS":"546.148","DECAY_DATE":null,"CLASSIFICATION_TYPE":"U","TLE_LINE2":"2 47147  53.0545 279.9276 0001606  71.2200 288.8963 15.06384787 50833","TLE_LINE1":"1 47147U 20088AB  21295.66570893  .00001529  00000-0  12158-3 0  9991","ARG_OF_PERICENTER":"71.2200","INCLINATION":"53.0545","PERIOD":"95.593","LAUNCH_DATE":"2020-11-25","OBJECT_TYPE":"PAYLOAD","REV_AT_EPOCH":"5083","MEAN_ELEMENT_THEORY":"SGP4","ELEMENT_SET_NO":"999","TIME_SYSTEM":"UTC","ECCENTRICITY":"0.00016060","COUNTRY_CODE":"US","GP_ID":"187934184","RCS_SIZE":"LARGE","NORAD_CAT_ID":"47147","MEAN_ANOMALY":"288.8963","REF_FRAME":"TEME"},{"SEMIMAJOR_AXIS":"6925.359","MEAN_MOTION_DDOT":"0.0000000000000","CENTER_NAME":"EARTH","SITE":"AFETR","DECAY_DATE":null,"CLASSIFICATION_TYPE":"U","PERIAPSIS":"546.248","APOAPSIS":"548.199","OBJECT_NAME":"STARLINK-1861","EPOCH":"2021-10-22T15:22:46.338240","MEAN_MOTION_DOT":"0.00001233","RA_OF_ASC_NODE":"270.0238","OBJECT_ID":"2020-088AC","BSTAR":"0.00010169000000","FILE":"3179071","MEAN_MOTION":"15.06396722","EPHEMERIS_TYPE":"0","TIME_SYSTEM":"UTC","MEAN_ELEMENT_THEORY":"SGP4","ELEMENT_SET_NO":"999","ECCENTRICITY":"0.00014090","GP_ID":"187932933","RCS_SIZE":"LARGE","NORAD_CAT_ID":"47148","COUNTRY_CODE":"US","REF_FRAME":"TEME","MEAN_ANOMALY":"285.6631","TLE_LINE2":"2 47148  53.0560 270.0238 0001409  74.4514 285.6631 15.06396722 50968","TLE_LINE1":"1 47148U 20088AC  21295.64081410  .00001233  00000-0  10169-3 0  9994","ARG_OF_PERICENTER":"74.4514","PERIOD":"95.592","INCLINATION":"53.0560","OBJECT_TYPE":"PAYLOAD","LAUNCH_DATE":"2020-11-25","REV_AT_EPOCH":"5096"},{"TIME_SYSTEM":"UTC","MEAN_ELEMENT_THEORY":"SGP4","ELEMENT_SET_NO":"999","ECCENTRICITY":"0.00015470","MEAN_ANOMALY":"283.3553","REF_FRAME":"TEME","COUNTRY_CODE":"US","GP_ID":"187933182","NORAD_CAT_ID":"47149","RCS_SIZE":"LARGE","TLE_LINE1":"1 47149U 20088AD  21295.66937986 -.00000672  00000-0 -26227-4 0  9996","TLE_LINE2":"2 47149  53.0539 279.9074 0001547  76.7608 283.3553 15.06397771 51563","ARG_OF_PERICENTER":"76.7608","LAUNCH_DATE":"2020-11-25","OBJECT_TYPE":"PAYLOAD","INCLINATION":"53.0539","PERIOD":"95.592","REV_AT_EPOCH":"5156","SEMIMAJOR_AXIS":"6925.355","MEAN_MOTION_DDOT":"0.0000000000000","CENTER_NAME":"EARTH","SITE":"AFETR","PERIAPSIS":"546.149","DECAY_DATE":null,"CLASSIFICATION_TYPE":"U","EPOCH":"2021-10-22T16:03:54.419904","MEAN_MOTION_DOT":"-0.00000672","OBJECT_NAME":"STARLINK-1862","APOAPSIS":"548.292","RA_OF_ASC_NODE":"279.9074","EPHEMERIS_TYPE":"0","BSTAR":"-0.00002622700000","FILE":"3179071","MEAN_MOTION":"15.06397771","OBJECT_ID":"2020-088AD"},{"MEAN_ELEMENT_THEORY":"SGP4","TIME_SYSTEM":"UTC","ELEMENT_SET_NO":"999","ECCENTRICITY":"0.00015670","COUNTRY_CODE":"US","RCS_SIZE":"LARGE","GP_ID":"187933934","NORAD_CAT_ID":"47150","MEAN_ANOMALY":"280.7279","REF_FRAME":"TEME","TLE_LINE2":"2 47150  53.0535 269.9371 0001567  79.3886 280.7279 15.06396484 50979","TLE_LINE1":"1 47150U 20088AE  21295.66292842  .00001317  00000-0  10732-3 0  9991","ARG_OF_PERICENTER":"79.3886","INCLINATION":"53.0535","PERIOD":"95.592","LAUNCH_DATE":"2020-11-25","OBJECT_TYPE":"PAYLOAD","REV_AT_EPOCH":"5097","SEMIMAJOR_AXIS":"6925.359","MEAN_MOTION_DDOT":"0.0000000000000","SITE":"AFETR","CENTER_NAME":"EARTH","PERIAPSIS":"546.139","DECAY_DATE":null,"CLASSIFICATION_TYPE":"U","OBJECT_NAME":"STARLINK-1863","APOAPSIS":"548.310","EPOCH":"2021-10-22T15:54:37.015488","MEAN_MOTION_DOT":"0.00001317","RA_OF_ASC_NODE":"269.9371","MEAN_MOTION":"15.06396484","FILE":"3179071","BSTAR":"0.00010732000000","OBJECT_ID":"2020-088AE","EPHEMERIS_TYPE":"0"}];
